{"fetched_at":"2026-07-06T18:35:17.756Z","source":"https://celestrak.org/NORAD/elements/gp.php?GROUP=spire&FORMAT=JSON","constellation":"spire","records":[{"OBJECT_NAME":"LEMUR-2-LEIA-PHILIP","OBJECT_ID":"2025-052AN","EPOCH":"2026-07-06T05:58:30.501696","CLASSIFICATION_TYPE":"U","MEAN_MOTION":14.97373069,"ECCENTRICITY":0.00047714,"INCLINATION":97.6815,"RA_OF_ASC_NODE":78.8772,"ARG_OF_PERICENTER":142.6736,"MEAN_ANOMALY":217.4818,"EPHEMERIS_TYPE":0,"NORAD_CAT_ID":63246,"ELEMENT_SET_NO":999,"REV_AT_EPOCH":7152,"BSTAR":0.00020276551,"MEAN_MOTION_DOT":0.00002298,"MEAN_MOTION_DDOT":0},{"OBJECT_NAME":"LEMUR-2-LIA-MARTIN","OBJECT_ID":"2025-052AQ","EPOCH":"2026-07-06T05:55:59.280096","CLASSIFICATION_TYPE":"U","MEAN_MOTION":14.97973662,"ECCENTRICITY":0.00051661,"INCLINATION":97.686,"RA_OF_ASC_NODE":79.3784,"ARG_OF_PERICENTER":112.6456,"MEAN_ANOMALY":247.5313,"EPHEMERIS_TYPE":0,"NORAD_CAT_ID":63248,"ELEMENT_SET_NO":999,"REV_AT_EPOCH":7153,"BSTAR":0.00049981347,"MEAN_MOTION_DOT":0.00005843,"MEAN_MOTION_DDOT":0},{"OBJECT_NAME":"LEMUR-2-DELOITTE-1","OBJECT_ID":"2025-052BB","EPOCH":"2026-07-06T03:49:32.702592","CLASSIFICATION_TYPE":"U","MEAN_MOTION":14.97739734,"ECCENTRICITY":0.00022843,"INCLINATION":97.6882,"RA_OF_ASC_NODE":79.6236,"ARG_OF_PERICENTER":65.5332,"MEAN_ANOMALY":294.6128,"EPHEMERIS_TYPE":0,"NORAD_CAT_ID":63259,"ELEMENT_SET_NO":999,"REV_AT_EPOCH":7153,"BSTAR":0.00034957662,"MEAN_MOTION_DOT":0.00004043,"MEAN_MOTION_DDOT":0},{"OBJECT_NAME":"LEMUR-2-EMERSONROSE","OBJECT_ID":"2025-052BD","EPOCH":"2026-07-06T04:23:00.013920","CLASSIFICATION_TYPE":"U","MEAN_MOTION":14.99234298,"ECCENTRICITY":0.00027152,"INCLINATION":97.6867,"RA_OF_ASC_NODE":80.2397,"ARG_OF_PERICENTER":74.4328,"MEAN_ANOMALY":285.7195,"EPHEMERIS_TYPE":0,"NORAD_CAT_ID":63261,"ELEMENT_SET_NO":999,"REV_AT_EPOCH":7158,"BSTAR":0.00041714769,"MEAN_MOTION_DOT":0.00005028,"MEAN_MOTION_DDOT":0},{"OBJECT_NAME":"LEMUR-2-MARACHE-FRAN","OBJECT_ID":"2025-052BE","EPOCH":"2026-07-05T22:40:27.931008","CLASSIFICATION_TYPE":"U","MEAN_MOTION":15.00274249,"ECCENTRICITY":0.00044056,"INCLINATION":97.6872,"RA_OF_ASC_NODE":80.3604,"ARG_OF_PERICENTER":296.1908,"MEAN_ANOMALY":63.8862,"EPHEMERIS_TYPE":0,"NORAD_CAT_ID":63262,"ELEMENT_SET_NO":999,"REV_AT_EPOCH":7157,"BSTAR":0.0004305268,"MEAN_MOTION_DOT":0.00005335,"MEAN_MOTION_DDOT":0},{"OBJECT_NAME":"LEMUR-2-THEFALCONER","OBJECT_ID":"2025-052BG","EPOCH":"2026-07-06T06:07:47.222688","CLASSIFICATION_TYPE":"U","MEAN_MOTION":14.97528478,"ECCENTRICITY":0.00009623,"INCLINATION":97.6842,"RA_OF_ASC_NODE":79.317,"ARG_OF_PERICENTER":29.1762,"MEAN_ANOMALY":330.9514,"EPHEMERIS_TYPE":0,"NORAD_CAT_ID":63264,"ELEMENT_SET_NO":999,"REV_AT_EPOCH":7154,"BSTAR":0.0004215911,"MEAN_MOTION_DOT":0.00004861,"MEAN_MOTION_DDOT":0},{"OBJECT_NAME":"LEMUR-2-UNTITLED-SC","OBJECT_ID":"2025-061A","EPOCH":"2026-07-05T22:20:15.709632","CLASSIFICATION_TYPE":"U","MEAN_MOTION":15.13606209,"ECCENTRICITY":0.00182184,"INCLINATION":97.5649,"RA_OF_ASC_NODE":162.1578,"ARG_OF_PERICENTER":194.9131,"MEAN_ANOMALY":165.1565,"EPHEMERIS_TYPE":0,"NORAD_CAT_ID":63351,"ELEMENT_SET_NO":999,"REV_AT_EPOCH":7042,"BSTAR":0.00024018684,"MEAN_MOTION_DOT":0.00004262,"MEAN_MOTION_DDOT":0},{"OBJECT_NAME":"LEMUR-2-ESPERANZA","OBJECT_ID":"2025-061B","EPOCH":"2026-07-05T21:45:41.048640","CLASSIFICATION_TYPE":"U","MEAN_MOTION":15.13711408,"ECCENTRICITY":0.00178328,"INCLINATION":97.5654,"RA_OF_ASC_NODE":162.2317,"ARG_OF_PERICENTER":194.0477,"MEAN_ANOMALY":166.026,"EPHEMERIS_TYPE":0,"NORAD_CAT_ID":63352,"ELEMENT_SET_NO":999,"REV_AT_EPOCH":7042,"BSTAR":0.00034450294,"MEAN_MOTION_DOT":0.00006161,"MEAN_MOTION_DDOT":0},{"OBJECT_NAME":"LEMUR-2-KREMPEL-BRO2","OBJECT_ID":"2025-061C","EPOCH":"2026-07-05T22:16:45.329952","CLASSIFICATION_TYPE":"U","MEAN_MOTION":15.14137182,"ECCENTRICITY":0.00189812,"INCLINATION":97.5704,"RA_OF_ASC_NODE":162.8106,"ARG_OF_PERICENTER":186.7372,"MEAN_ANOMALY":173.3607,"EPHEMERIS_TYPE":0,"NORAD_CAT_ID":63353,"ELEMENT_SET_NO":999,"REV_AT_EPOCH":7044,"BSTAR":0.00023215455,"MEAN_MOTION_DOT":0.00004181,"MEAN_MOTION_DDOT":0},{"OBJECT_NAME":"LEMUR-2-THERMORAPTOR","OBJECT_ID":"2025-061D","EPOCH":"2026-07-06T04:10:07.449312","CLASSIFICATION_TYPE":"U","MEAN_MOTION":15.14220361,"ECCENTRICITY":0.00187793,"INCLINATION":97.5707,"RA_OF_ASC_NODE":163.1337,"ARG_OF_PERICENTER":184.6658,"MEAN_ANOMALY":175.4402,"EPHEMERIS_TYPE":0,"NORAD_CAT_ID":63354,"ELEMENT_SET_NO":999,"REV_AT_EPOCH":7048,"BSTAR":0.00019988168,"MEAN_MOTION_DOT":0.00003598,"MEAN_MOTION_DDOT":0},{"OBJECT_NAME":"LEMUR-2-NEUROSPICY","OBJECT_ID":"2025-061E","EPOCH":"2026-07-05T21:06:38.102688","CLASSIFICATION_TYPE":"U","MEAN_MOTION":15.14336803,"ECCENTRICITY":0.00164931,"INCLINATION":97.5634,"RA_OF_ASC_NODE":162.453,"ARG_OF_PERICENTER":188.7768,"MEAN_ANOMALY":171.3178,"EPHEMERIS_TYPE":0,"NORAD_CAT_ID":63355,"ELEMENT_SET_NO":999,"REV_AT_EPOCH":7044,"BSTAR":0.00027581484,"MEAN_MOTION_DOT":0.00005004,"MEAN_MOTION_DDOT":0},{"OBJECT_NAME":"LEMUR-2-TILLINFINITY","OBJECT_ID":"2025-061F","EPOCH":"2026-07-06T04:07:29.774496","CLASSIFICATION_TYPE":"U","MEAN_MOTION":15.14921777,"ECCENTRICITY":0.00181369,"INCLINATION":97.562,"RA_OF_ASC_NODE":163.0472,"ARG_OF_PERICENTER":175.997,"MEAN_ANOMALY":184.141,"EPHEMERIS_TYPE":0,"NORAD_CAT_ID":63356,"ELEMENT_SET_NO":999,"REV_AT_EPOCH":7051,"BSTAR":0.00020384771,"MEAN_MOTION_DOT":0.00003744,"MEAN_MOTION_DDOT":0},{"OBJECT_NAME":"LEMUR-2-KREMPEL-BRO1","OBJECT_ID":"2025-061G","EPOCH":"2026-07-05T21:12:17.362656","CLASSIFICATION_TYPE":"U","MEAN_MOTION":15.14727577,"ECCENTRICITY":0.00186999,"INCLINATION":97.5621,"RA_OF_ASC_NODE":162.6713,"ARG_OF_PERICENTER":178.6211,"MEAN_ANOMALY":181.5075,"EPHEMERIS_TYPE":0,"NORAD_CAT_ID":63357,"ELEMENT_SET_NO":999,"REV_AT_EPOCH":7046,"BSTAR":0.0002690285,"MEAN_MOTION_DOT":0.00004938,"MEAN_MOTION_DDOT":0},{"OBJECT_NAME":"LEMUR-2-LANGER2SPACE","OBJECT_ID":"2025-061H","EPOCH":"2026-07-05T23:30:59.459904","CLASSIFICATION_TYPE":"U","MEAN_MOTION":15.14422814,"ECCENTRICITY":0.00164745,"INCLINATION":97.5625,"RA_OF_ASC_NODE":162.5736,"ARG_OF_PERICENTER":186.4636,"MEAN_ANOMALY":173.6386,"EPHEMERIS_TYPE":0,"NORAD_CAT_ID":63358,"ELEMENT_SET_NO":999,"REV_AT_EPOCH":7046,"BSTAR":0.00022185135,"MEAN_MOTION_DOT":0.00004021,"MEAN_MOTION_DDOT":0},{"OBJECT_NAME":"LEMUR-2-BALTO","OBJECT_ID":"2025-052BH","EPOCH":"2026-07-05T22:18:18.539136","CLASSIFICATION_TYPE":"U","MEAN_MOTION":15.00303098,"ECCENTRICITY":0.00057728,"INCLINATION":97.6925,"RA_OF_ASC_NODE":80.3241,"ARG_OF_PERICENTER":3.4548,"MEAN_ANOMALY":356.6714,"EPHEMERIS_TYPE":0,"NORAD_CAT_ID":63395,"ELEMENT_SET_NO":999,"REV_AT_EPOCH":7157,"BSTAR":0.0005474846,"MEAN_MOTION_DOT":0.00006808,"MEAN_MOTION_DDOT":0},{"OBJECT_NAME":"LEMUR-2-KRISH","OBJECT_ID":"2025-135AK","EPOCH":"2026-07-05T20:46:46.485120","CLASSIFICATION_TYPE":"U","MEAN_MOTION":14.96389203,"ECCENTRICITY":0.00016675,"INCLINATION":97.7758,"RA_OF_ASC_NODE":301.6157,"ARG_OF_PERICENTER":102.9872,"MEAN_ANOMALY":257.1536,"EPHEMERIS_TYPE":0,"NORAD_CAT_ID":64561,"ELEMENT_SET_NO":999,"REV_AT_EPOCH":5671,"BSTAR":0.00061258745,"MEAN_MOTION_DOT":0.00006885,"MEAN_MOTION_DDOT":0}]}
